STARLINK-32482          
1 62141U 24224C   26068.30655468  .00015463  00000+0  57018-3 0  9999
2 62141  43.0011 160.0831 0000979 256.7047 103.3695 15.27584526 72269
TEVEL2-8                
1 63239U 25052AF  26068.66815442  .00019130  00000+0  69304-3 0  9993
2 63239  97.4055 324.2923 0008031 124.9191 235.2804 15.28392908 54807
